<?xml version="1.0" encoding="UTF-8"?>
<kml xmlns="http://www.opengis.net/kml/2.2">
  <Document>
    <name>Zonas de Uso e Ocupação do Solo</name>
    <description>Zonas de Uso e Ocupação do Solo - Prefeitura Municipal de Bauru - SP </description>
    <NetworkLink>
      <name>Zonas de Uso e Ocupação do Solo</name>
      <Link>
        <href><![CDATA[https://www.google.com/maps/d/u/0/kml?forcekml=1&mid=1P0ydd5n8ukghkJNnf4dNAiSdl5HsFFIn]]></href>
      </Link>
    </NetworkLink>
  </Document>
</kml>
